TIANMU-1 07             
1 57399U 23101A   26065.57454230  .00008352  00000+0  29795-3 0  9991
2 57399  97.2728 118.5929 0004609 142.4105 217.7458 15.29118809145964
STARLINK-36102          
1 66849U 25281B   26068.66670139  .00042511  00000+0  15469-2 0  9990
2 66849  43.0042 343.8058 0001702 272.8951 305.2793 15.27548752  5777
